start=new Date('2022-12-30T00:00:00.000Z').valueOf();
sats=[{"CLASSIFICATION_TYPE":"U","ARG_OF_PERICENTER":"109.6006","FILE":"3725950","COUNTRY_CODE":"US","TIME_SYSTEM":"UTC","GP_ID":"221745595","REV_AT_EPOCH":"14272","SITE":"AFETR","TLE_LINE2":"2 45682  53.0543 250.7789 0001013 109.6006 250.5093 15.06451018142723","LAUNCH_DATE":"2020-06-04","MEAN_MOTION_DDOT":"0.0000000000000","NORAD_CAT_ID":"45682","APOAPSIS":"547.759","OBJECT_ID":"2020-035AB","BSTAR":"-0.00053638000000","ELEMENT_SET_NO":"999","RCS_SIZE":"LARGE","OBJECT_NAME":"STARLINK-1397","DECAY_DATE":null,"EPOCH":"2022-12-29T17:45:40.761504","ECCENTRICITY":"0.00010130","EPHEMERIS_TYPE":"0","CENTER_NAME":"EARTH","PERIAPSIS":"546.356","REF_FRAME":"TEME","PERIOD":"95.589","MEAN_MOTION_DOT":"-0.00008273","INCLINATION":"53.0543","RA_OF_ASC_NODE":"250.7789","MEAN_ELEMENT_THEORY":"SGP4","TLE_LINE1":"1 45682U 20035AB  22363.74005511 -.00008273  00000-0 -53638-3 0  9994","MEAN_MOTION":"15.06451018","MEAN_ANOMALY":"250.5093","SEMIMAJOR_AXIS":"6925.192","OBJECT_TYPE":"PAYLOAD"},{"MEAN_MOTION_DOT":"-0.00005038","INCLINATION":"53.0543","MEAN_ELEMENT_THEORY":"SGP4","RA_OF_ASC_NODE":"252.3379","TLE_LINE1":"1 45683U 20035AC  22363.38990766 -.00005038  00000-0 -31961-3 0  9991","MEAN_MOTION":"15.06391248","MEAN_ANOMALY":"297.2372","SEMIMAJOR_AXIS":"6925.375","OBJECT_TYPE":"PAYLOAD","EPHEMERIS_TYPE":"0","CENTER_NAME":"EARTH","PERIAPSIS":"545.835","REF_FRAME":"TEME","PERIOD":"95.593","APOAPSIS":"548.646","OBJECT_ID":"2020-035AC","BSTAR":"-0.00031961000000","RCS_SIZE":"LARGE","ELEMENT_SET_NO":"999","OBJECT_NAME":"STARLINK-1399","DECAY_DATE":null,"EPOCH":"2022-12-29T09:21:28.021824","ECCENTRICITY":"0.00020290","CLASSIFICATION_TYPE":"U","ARG_OF_PERICENTER":"62.8824","FILE":"3725790","COUNTRY_CODE":"US","TIME_SYSTEM":"UTC","REV_AT_EPOCH":"14308","GP_ID":"221735391","TLE_LINE2":"2 45683  53.0543 252.3379 0002029  62.8824 297.2372 15.06391248143089","SITE":"AFETR","MEAN_MOTION_DDOT":"0.0000000000000","LAUNCH_DATE":"2020-06-04","NORAD_CAT_ID":"45683"},{"LAUNCH_DATE":"2020-06-04","MEAN_MOTION_DDOT":"0.0000000000000","TLE_LINE2":"2 45684  53.0533 250.9625 0001585  66.2610 293.8545 15.06386988142723","SITE":"AFETR","NORAD_CAT_ID":"45684","TIME_SYSTEM":"UTC","REV_AT_EPOCH":"14272","GP_ID":"221745607","FILE":"3725951","COUNTRY_CODE":"US","CLASSIFICATION_TYPE":"U","ARG_OF_PERICENTER":"66.2610","EPOCH":"2022-12-29T16:47:18.653280","ECCENTRICITY":"0.00015850","RCS_SIZE":"LARGE","ELEMENT_SET_NO":"999","DECAY_DATE":null,"OBJECT_NAME":"STARLINK-1401","APOAPSIS":"548.351","BSTAR":"-0.00025382000000","OBJECT_ID":"2020-035AD","PERIAPSIS":"546.156","REF_FRAME":"TEME","PERIOD":"95.593","CENTER_NAME":"EARTH","EPHEMERIS_TYPE":"0","SEMIMAJOR_AXIS":"6925.388","OBJECT_TYPE":"PAYLOAD","MEAN_MOTION":"15.06386988","MEAN_ANOMALY":"293.8545","RA_OF_ASC_NODE":"250.9625","MEAN_ELEMENT_THEORY":"SGP4","TLE_LINE1":"1 45684U 20035AD  22363.69952145 -.00004059  00000-0 -25382-3 0  9997","INCLINATION":"53.0533","MEAN_MOTION_DOT":"-0.00004059"},{"CLASSIFICATION_TYPE":"U","ARG_OF_PERICENTER":"95.5020","FILE":"3725654","COUNTRY_CODE":"US","TIME_SYSTEM":"UTC","GP_ID":"221712018","REV_AT_EPOCH":"14268","TLE_LINE2":"2 45685  53.0508 252.1670 0001490  95.5020 264.6139 15.06392077142681","SITE":"AFETR","LAUNCH_DATE":"2020-06-04","MEAN_MOTION_DDOT":"0.0000000000000","NORAD_CAT_ID":"45685","APOAPSIS":"548.270","OBJECT_ID":"2020-035AE","BSTAR":"-0.00026430000000","RCS_SIZE":"LARGE","ELEMENT_SET_NO":"999","OBJECT_NAME":"STARLINK-1402","DECAY_DATE":null,"EPOCH":"2022-12-29T10:19:49.438848","ECCENTRICITY":"0.00014900","EPHEMERIS_TYPE":"0","CENTER_NAME":"EARTH","PERIAPSIS":"546.206","PERIOD":"95.593","REF_FRAME":"TEME","MEAN_MOTION_DOT":"-0.00004215","INCLINATION":"53.0508","RA_OF_ASC_NODE":"252.1670","MEAN_ELEMENT_THEORY":"SGP4","TLE_LINE1":"1 45685U 20035AE  22363.43043332 -.00004215  00000-0 -26430-3 0  9998","MEAN_MOTION":"15.06392077","MEAN_ANOMALY":"264.6139","SEMIMAJOR_AXIS":"6925.373","OBJECT_TYPE":"PAYLOAD"},{"REV_AT_EPOCH":"14309","GP_ID":"221734641","TIME_SYSTEM":"UTC","NORAD_CAT_ID":"45686","SITE":"AFETR","TLE_LINE2":"2 45686  53.0547 252.1930 0001570 107.4965 252.6196 15.06388066143093","LAUNCH_DATE":"2020-06-04","MEAN_MOTION_DDOT":"0.0000000000000","ARG_OF_PERICENTER":"107.4965","CLASSIFICATION_TYPE":"U","COUNTRY_CODE":"US","FILE":"3725790","OBJECT_NAME":"STARLINK-1404","DECAY_DATE":null,"RCS_SIZE":"LARGE","ELEMENT_SET_NO":"999","ECCENTRICITY":"0.00015700","EPOCH":"2022-12-29T10:09:14.607936","OBJECT_ID":"2020-035AF","BSTAR":"-0.00004970100000","APOAPSIS":"548.337","PERIOD":"95.593","REF_FRAME":"TEME","PERIAPSIS":"546.163","EPHEMERIS_TYPE":"0","CENTER_NAME":"EARTH","MEAN_ANOMALY":"252.6196","MEAN_MOTION":"15.06388066","OBJECT_TYPE":"PAYLOAD","SEMIMAJOR_AXIS":"6925.385","MEAN_MOTION_DOT":"-0.00001021","INCLINATION":"53.0547","TLE_LINE1":"1 45686U 20035AF  22363.42308574 -.00001021  00000-0 -49701-4 0  9999","MEAN_ELEMENT_THEORY":"SGP4","RA_OF_ASC_NODE":"252.1930"},{"APOAPSIS":"532.974","OBJECT_ID":"2020-035AH","BSTAR":"0.00108410000000","RCS_SIZE":"LARGE","ELEMENT_SET_NO":"999","OBJECT_NAME":"STARLINK-1408","DECAY_DATE":null,"EPOCH":"2022-12-29T02:41:22.644960","ECCENTRICITY":"0.00039210","CLASSIFICATION_TYPE":"U","ARG_OF_PERICENTER":"114.8045","FILE":"3725790","COUNTRY_CODE":"US","TIME_SYSTEM":"UTC","GP_ID":"221735891","REV_AT_EPOCH":"14307","SITE":"AFETR","TLE_LINE2":"2 45688  53.0556 251.1285 0003921 114.8045 245.3355 15.11946856143077","LAUNCH_DATE":"2020-06-04","MEAN_MOTION_DDOT":"0.0000000000000","NORAD_CAT_ID":"45688","MEAN_MOTION_DOT":"0.00018554","INCLINATION":"53.0556","MEAN_ELEMENT_THEORY":"SGP4","RA_OF_ASC_NODE":"251.1285","TLE_LINE1":"1 45688U 20035AH  22363.11206765  .00018554  00000-0  10841-2 0  9994","MEAN_MOTION":"15.11946856","MEAN_ANOMALY":"245.3355","SEMIMAJOR_AXIS":"6908.400","OBJECT_TYPE":"PAYLOAD","EPHEMERIS_TYPE":"0","CENTER_NAME":"EARTH","PERIAPSIS":"527.556","PERIOD":"95.241","REF_FRAME":"TEME"},{"GP_ID":"221745624","REV_AT_EPOCH":"14272","TIME_SYSTEM":"UTC","NORAD_CAT_ID":"45689","LAUNCH_DATE":"2020-06-04","MEAN_MOTION_DDOT":"0.0000000000000","TLE_LINE2":"2 45689  53.0561 250.9269 0001035  81.9968 278.1138 15.06388094142727","SITE":"AFETR","ARG_OF_PERICENTER":"81.9968","CLASSIFICATION_TYPE":"U","COUNTRY_CODE":"US","FILE":"3725960","DECAY_DATE":null,"OBJECT_NAME":"STARLINK-1413","RCS_SIZE":"LARGE","ELEMENT_SET_NO":"999","ECCENTRICITY":"0.00010350","EPOCH":"2022-12-29T16:57:55.931040","BSTAR":"-0.00011530000000","OBJECT_ID":"2020-035AJ","APOAPSIS":"547.967","REF_FRAME":"TEME","PERIOD":"95.593","PERIAPSIS":"546.533","EPHEMERIS_TYPE":"0","CENTER_NAME":"EARTH","MEAN_ANOMALY":"278.1138","MEAN_MOTION":"15.06388094","OBJECT_TYPE":"PAYLOAD","SEMIMAJOR_AXIS":"6925.385","INCLINATION":"53.0561","MEAN_MOTION_DOT":"-0.00001998","TLE_LINE1":"1 45689U 20035AJ  22363.70689735 -.00001998  00000-0 -11530-3 0  9995","RA_OF_ASC_NODE":"250.9269","MEAN_ELEMENT_THEORY":"SGP4"},{"INCLINATION":"53.0572","MEAN_MOTION_DOT":"-0.00001586","TLE_LINE1":"1 45690U 20035AK  22363.11619666 -.00001586  00000-0 -87614-4 0  9998","MEAN_ELEMENT_THEORY":"SGP4","RA_OF_ASC_NODE":"253.5684","MEAN_ANOMALY":"283.2591","MEAN_MOTION":"15.06401570","OBJECT_TYPE":"PAYLOAD","SEMIMAJOR_AXIS":"6925.344","EPHEMERIS_TYPE":"0","CENTER_NAME":"EARTH","PERIOD":"95.592","REF_FRAME":"TEME","PERIAPSIS":"546.194","BSTAR":"-0.00008761400000","OBJECT_ID":"2020-035AK","APOAPSIS":"548.223","DECAY_DATE":null,"OBJECT_NAME":"STARLINK-1414","RCS_SIZE":"LARGE","ELEMENT_SET_NO":"999","ECCENTRICITY":"0.00014650","EPOCH":"2022-12-29T02:47:19.391424","ARG_OF_PERICENTER":"76.8562","CLASSIFICATION_TYPE":"U","COUNTRY_CODE":"US","FILE":"3725790","GP_ID":"221734890","REV_AT_EPOCH":"14298","TIME_SYSTEM":"UTC","NORAD_CAT_ID":"45690","LAUNCH_DATE":"2020-06-04","MEAN_MOTION_DDOT":"0.0000000000000","SITE":"AFETR","TLE_LINE2":"2 45690  53.0572 253.5684 0001465  76.8562 283.2591 15.06401570142984"},{"ARG_OF_PERICENTER":"88.4339","CLASSIFICATION_TYPE":"U","COUNTRY_CODE":"US","FILE":"3726039","REV_AT_EPOCH":"14312","GP_ID":"221747576","TIME_SYSTEM":"UTC","NORAD_CAT_ID":"45691","MEAN_MOTION_DDOT":"0.0000000000000","LAUNCH_DATE":"2020-06-04","SITE":"AFETR","TLE_LINE2":"2 45691  53.0530 250.9913 0001415  88.4339 271.6812 15.06381054143129","BSTAR":"-0.00022484000000","OBJECT_ID":"2020-035AL","APOAPSIS":"548.252","DECAY_DATE":null,"OBJECT_NAME":"STARLINK-1415","RCS_SIZE":"LARGE","ELEMENT_SET_NO":"999","ECCENTRICITY":"0.00014150","EPOCH":"2022-12-29T16:36:41.925024","EPHEMERIS_TYPE":"0","CENTER_NAME":"EARTH","REF_FRAME":"TEME","PERIOD":"95.593","PERIAPSIS":"546.292","INCLINATION":"53.0530","MEAN_MOTION_DOT":"-0.00003627","TLE_LINE1":"1 45691U 20035AL  22363.69215191 -.00003627  00000-0 -22484-3 0  9998","RA_OF_ASC_NODE":"250.9913","MEAN_ELEMENT_THEORY":"SGP4","MEAN_ANOMALY":"271.6812","MEAN_MOTION":"15.06381054","OBJECT_TYPE":"PAYLOAD","SEMIMAJOR_AXIS":"6925.407"},{"ARG_OF_PERICENTER":"76.0343","CLASSIFICATION_TYPE":"U","COUNTRY_CODE":"US","FILE":"3725790","REV_AT_EPOCH":"14308","GP_ID":"221735392","TIME_SYSTEM":"UTC","NORAD_CAT_ID":"45692","TLE_LINE2":"2 45692  53.0539 252.2029 0001270  76.0343 284.0787 15.06391077143089","SITE":"AFETR","MEAN_MOTION_DDOT":"0.0000000000000","LAUNCH_DATE":"2020-06-04","OBJECT_ID":"2020-035AM","BSTAR":"-0.00016353000000","APOAPSIS":"548.120","OBJECT_NAME":"STARLINK-1416","DECAY_DATE":null,"ELEMENT_SET_NO":"999","RCS_SIZE":"LARGE","ECCENTRICITY":"0.00012700","EPOCH":"2022-12-29T10:03:55.453248","EPHEMERIS_TYPE":"0","CENTER_NAME":"EARTH","REF_FRAME":"TEME","PERIOD":"95.593","PERIAPSIS":"546.361","MEAN_MOTION_DOT":"-0.00002716","INCLINATION":"53.0539","TLE_LINE1":"1 45692U 20035AM  22363.41939182 -.00002716  00000-0 -16353-3 0  9998","MEAN_ELEMENT_THEORY":"SGP4","RA_OF_ASC_NODE":"252.2029","MEAN_ANOMALY":"284.0787","MEAN_MOTION":"15.06391077","OBJECT_TYPE":"PAYLOAD","SEMIMAJOR_AXIS":"6925.376"}];
